STARLINK-3150           
1 49452U 21104AW  26068.73588929  .00000043  00000+0  20768-4 0  9998
2 49452  53.2171 218.9535 0001506  90.6309 269.4856 15.08842721238783
SEDNA-2                 
1 63153U 25009DQ  26068.79893845  .00008085  00000+0  49393-3 0  9990
2 63153  97.4615 144.8075 0010309  53.0260 307.1912 15.10492622 63116
